{"type": "FeatureCollection", "features": [ {"type": "Feature", "properties": {"norad_id": 30500, "name": "FENGYUN 1C DEB", "group": "fengyun-1c-debris", "lat": -74.17388235092143, "lon": 113.27105855327218, "alt_km": 860.7313680910611, "timestamp": "2025-12-13T10:41:26.042852+00:00", "meta": {"OBJECT_NAME": "FENGYUN 1C DEB", "OBJECT_ID": "1999-025AHN", "EPOCH": "2025-12-12T04:52:03.720576", "MEAN_MOTION": 14.25186793, "ECCENTRICITY": 0.00648229, "INCLINATION": 99.0723, "RA_OF_ASC_NODE": 77.6767, "ARG_OF_PERICENTER": 117.8824, "MEAN_ANOMALY": 273.0615, "EPHEMERIS_TYPE": 0, "CLASSIFICATION_TYPE": "U", "NORAD_CAT_ID": 30500, "ELEMENT_SET_NO": 999, "REV_AT_EPOCH": 96674, "BSTAR": 0.0041433504, "MEAN_MOTION_DOT": 9.916e-05, "MEAN_MOTION_DDOT": 0}, "tle": {"line1": "1 30500U 99025AHN 25346.20282084  .00009916  00000+0  41434-2 0  9991", "line2": "2 30500  99.0723  77.6767 0064822 117.8824 273.0615 14.25186793966745"}}, "geometry": {"type": "Point", "coordinates": [113.27105855327218, -74.17388235092143]}}, {"type": "Feature", "properties": {"norad_id": 30501, "name": "FENGYUN 1C DEB", "group": "fengyun-1c-debris", "lat": -49.8950803051876, "lon": 147.3240301878775, "alt_km": 788.8205918745107, "timestamp": "2025-12-13T10:41:26.042863+00:00", "meta": {"OBJECT_NAME": "FENGYUN 1C DEB", "OBJECT_ID": "1999-025AHP", "EPOCH": "2025-12-11T22:22:20.143776", "MEAN_MOTION": 14.25330893, "ECCENTRICITY": 0.004061, "INCLINATION": 99.0845, "RA_OF_ASC_NODE": 336.7088, "ARG_OF_PERICENTER": 205.1912, "MEAN_ANOMALY": 184.7235, "EPHEMERIS_TYPE": 0, "CLASSIFICATION_TYPE": "U", "NORAD_CAT_ID": 30501, "ELEMENT_SET_NO": 999, "REV_AT_EPOCH": 96908, "BSTAR": 0.0025286, "MEAN_MOTION_DOT": 5.965e-05, "MEAN_MOTION_DDOT": 0}, "tle": {"line1": "1 30501U 99025AHP 25345.93217759  .00005965  00000+0  25286-2 0  9995", "line2": "2 30501  99.0845 336.7088 0040610 205.1912 184.7235 14.25330893969082"}}, "geometry": {"type": "Point", "coordinates": [147.3240301878775, -49.8950803051876]}}, {"type": "Feature", "properties": {"norad_id": 30503, "name": "FENGYUN 1C DEB", "group": "fengyun-1c-debris", "lat": 61.52378316786862, "lon": 173.59450657193702, "alt_km": 838.0059061770517, "timestamp": "2025-12-13T10:41:26.042873+00:00", "meta": {"OBJECT_NAME": "FENGYUN 1C DEB", "OBJECT_ID": "1999-025AHR", "EPOCH": "2025-12-13T00:56:44.714688", "MEAN_MOTION": 14.16125436, "ECCENTRICITY": 0.00082854, "INCLINATION": 99.2045, "RA_OF_ASC_NODE": 190.5688, "ARG_OF_PERICENTER": 265.7399, "MEAN_ANOMALY": 248.3718, "EPHEMERIS_TYPE": 0, "CLASSIFICATION_TYPE": "U", "NORAD_CAT_ID": 30503, "ELEMENT_SET_NO": 999, "REV_AT_EPOCH": 97350, "BSTAR": 0.00039497756, "MEAN_MOTION_DOT": 7.34e-06, "MEAN_MOTION_DDOT": 0}, "tle": {"line1": "1 30503U 99025AHR 25347.03940642  .00000734  00000+0  39498-3 0  9994", "line2": "2 30503  99.2045 190.5688 0008285 265.7399 248.3718 14.16125436973503"}}, "geometry": {"type": "Point", "coordinates": [173.59450657193702, 61.52378316786862]}}, {"type": "Feature", "properties": {"norad_id": 30504, "name": "FENGYUN 1C DEB", "group": "fengyun-1c-debris", "lat": -70.05738739993556, "lon": 59.62027754147261, "alt_km": 807.116311498733, "timestamp": "2025-12-13T10:41:26.042883+00:00", "meta": {"OBJECT_NAME": "FENGYUN 1C DEB", "OBJECT_ID": "1999-025AHS", "EPOCH": "2025-12-11T01:38:46.526784", "MEAN_MOTION": 14.2048578, "ECCENTRICITY": 0.01120841, "INCLINATION": 99.0255, "RA_OF_ASC_NODE": 31.2149, "ARG_OF_PERICENTER": 221.2173, "MEAN_ANOMALY": 157.6074, "EPHEMERIS_TYPE": 0, "CLASSIFICATION_TYPE": "U", "NORAD_CAT_ID": 30504, "ELEMENT_SET_NO": 999, "REV_AT_EPOCH": 97370, "BSTAR": 0.00077210917, "MEAN_MOTION_DOT": 1.719e-05, "MEAN_MOTION_DDOT": 0}, "tle": {"line1": "1 30504U 99025AHS 25345.06859406  .00001719  00000+0  77211-3 0  9992", "line2": "2 30504  99.0255  31.2149 0112084 221.2173 157.6074 14.20485780973703"}}, "geometry": {"type": "Point", "coordinates": [59.62027754147261, -70.05738739993556]}}, {"type": "Feature", "properties": {"norad_id": 30505, "name": "FENGYUN 1C DEB", "group": "fengyun-1c-debris", "lat": -10.096519390325525, "lon": -114.49095805343956, "alt_km": 792.9703385207613, "timestamp": "2025-12-13T10:41:26.042893+00:00", "meta": {"OBJECT_NAME": "FENGYUN 1C DEB", "OBJECT_ID": "1999-025AHT", "EPOCH": "2025-12-12T05:13:09.592032", "MEAN_MOTION": 14.22030419, "ECCENTRICITY": 0.00636728, "INCLINATION": 98.9265, "RA_OF_ASC_NODE": 65.8703, "ARG_OF_PERICENTER": 243.6684, "MEAN_ANOMALY": 144.1368, "EPHEMERIS_TYPE": 0, "CLASSIFICATION_TYPE": "U", "NORAD_CAT_ID": 30505, "ELEMENT_SET_NO": 999, "REV_AT_EPOCH": 96916, "BSTAR": 0.0026942283, "MEAN_MOTION_DOT": 6.039e-05, "MEAN_MOTION_DDOT": 0}, "tle": {"line1": "1 30505U 99025AHT 25346.21747213  .00006039  00000+0  26942-2 0  9997", "line2": "2 30505  98.9265  65.8703 0063672 243.6684 144.1368 14.22030419969164"}}, "geometry": {"type": "Point", "coordinates": [-114.49095805343956, -10.096519390325525]}}, {"type": "Feature", "properties": {"norad_id": 30506, "name": "FENGYUN 1C DEB", "group": "fengyun-1c-debris", "lat": -5.162097185172571, "lon": 171.70124451906815, "alt_km": 915.5954665460813, "timestamp": "2025-12-13T10:41:26.042904+00:00", "meta": {"OBJECT_NAME": "FENGYUN 1C DEB", "OBJECT_ID": "1999-025AHU", "EPOCH": "2025-12-12T23:43:02.703072", "MEAN_MOTION": 14.08650904, "ECCENTRICITY": 0.00702827, "INCLINATION": 98.757, "RA_OF_ASC_NODE": 352.0551, "ARG_OF_PERICENTER": 347.2689, "MEAN_ANOMALY": 40.7921, "EPHEMERIS_TYPE": 0, "CLASSIFICATION_TYPE": "U", "NORAD_CAT_ID": 30506, "ELEMENT_SET_NO": 999, "REV_AT_EPOCH": 96825, "BSTAR": 0.00041168336, "MEAN_MOTION_DOT": 6.82e-06, "MEAN_MOTION_DDOT": 0}, "tle": {"line1": "1 30506U 99025AHU 25346.98822573  .00000682  00000+0  41168-3 0  9991", "line2": "2 30506  98.7570 352.0551 0070282 347.2689  40.7921 14.08650904968251"}}, "geometry": {"type": "Point", "coordinates": [171.70124451906815, -5.162097185172571]}}, {"type": "Feature", "properties": {"norad_id": 30507, "name": "FENGYUN 1C DEB", "group": "fengyun-1c-debris", "lat": -44.99565803763049, "lon": 61.06521347571006, "alt_km": 925.8419541133753, "timestamp": "2025-12-13T10:41:26.042914+00:00", "meta": {"OBJECT_NAME": "FENGYUN 1C DEB", "OBJECT_ID": "1999-025AHV", "EPOCH": "2025-12-10T22:33:52.396992", "MEAN_MOTION": 14.13164072, "ECCENTRICITY": 0.0128396, "INCLINATION": 99.0136, "RA_OF_ASC_NODE": 49.4106, "ARG_OF_PERICENTER": 181.3494, "MEAN_ANOMALY": 353.865, "EPHEMERIS_TYPE": 0, "CLASSIFICATION_TYPE": "U", "NORAD_CAT_ID": 30507, "ELEMENT_SET_NO": 999, "REV_AT_EPOCH": 96472, "BSTAR": 0.0019555, "MEAN_MOTION_DOT": 3.913e-05, "MEAN_MOTION_DDOT": 0}, "tle": {"line1": "1 30507U 99025AHV 25344.94018978  .00003913  00000+0  19555-2 0  9996", "line2": "2 30507  99.0136  49.4106 0128396 181.3494 353.8650 14.13164072964725"}}, "geometry": {"type": "Point", "coordinates": [61.06521347571006, -44.99565803763049]}}, {"type": "Feature", "properties": {"norad_id": 30509, "name": "FENGYUN 1C DEB", "group": "fengyun-1c-debris", "lat": 65.31350997297787, "lon": 58.149272016560325, "alt_km": 814.9765652705055, "timestamp": "2025-12-13T10:41:26.042925+00:00", "meta": {"OBJECT_NAME": "FENGYUN 1C DEB", "OBJECT_ID": "1999-025AHX", "EPOCH": "2025-12-12T22:17:44.614176", "MEAN_MOTION": 14.07652269, "ECCENTRICITY": 0.01017409, "INCLINATION": 98.4652, "RA_OF_ASC_NODE": 218.761, "ARG_OF_PERICENTER": 62.8698, "MEAN_ANOMALY": 313.769, "EPHEMERIS_TYPE": 0, "CLASSIFICATION_TYPE": "U", "NORAD_CAT_ID": 30509, "ELEMENT_SET_NO": 999, "REV_AT_EPOCH": 95725, "BSTAR": 0.0029538181, "MEAN_MOTION_DOT": 5.195e-05, "MEAN_MOTION_DDOT": 0}, "tle": {"line1": "1 30509U 99025AHX 25346.92898859  .00005195  00000+0  29538-2 0  9998", "line2": "2 30509  98.4652 218.7610 0101740  62.8698 313.7690 14.07652269957259"}}, "geometry": {"type": "Point", "coordinates": [58.149272016560325, 65.31350997297787]}}, {"type": "Feature", "properties": {"norad_id": 30510, "name": "FENGYUN 1C DEB", "group": "fengyun-1c-debris", "lat": 3.952594731352073, "lon": -179.8585980828187, "alt_km": 796.2375725470174, "timestamp": "2025-12-13T10:41:26.042935+00:00", "meta": {"OBJECT_NAME": "FENGYUN 1C DEB", "OBJECT_ID": "1999-025AHY", "EPOCH": "2025-12-12T23:55:23.498400", "MEAN_MOTION": 14.12850781, "ECCENTRICITY": 0.00786838, "INCLINATION": 99.2452, "RA_OF_ASC_NODE": 359.0336, "ARG_OF_PERICENTER": 165.5609, "MEAN_ANOMALY": 249.4881, "EPHEMERIS_TYPE": 0, "CLASSIFICATION_TYPE": "U", "NORAD_CAT_ID": 30510, "ELEMENT_SET_NO": 999, "REV_AT_EPOCH": 96578, "BSTAR": 0.0019306212, "MEAN_MOTION_DOT": 3.652e-05, "MEAN_MOTION_DDOT": 0}, "tle": {"line1": "1 30510U 99025AHY 25346.99679975  .00003652  00000+0  19306-2 0  9991", "line2": "2 30510  99.2452 359.0336 0078683 165.5609 249.4881 14.12850781965783"}}, "geometry": {"type": "Point", "coordinates": [-179.8585980828187, 3.952594731352073]}}, {"type": "Feature", "properties": {"norad_id": 30514, "name": "FENGYUN 1C DEB", "group": "fengyun-1c-debris", "lat": 14.169973704707552, "lon": 8.815750337251286, "alt_km": 749.2275626047885, "timestamp": "2025-12-13T10:41:26.042948+00:00", "meta": {"OBJECT_NAME": "FENGYUN 1C DEB", "OBJECT_ID": "1999-025AJC", "EPOCH": "2025-12-13T00:34:44.690304", "MEAN_MOTION": 14.34357361, "ECCENTRICITY": 0.01745419, "INCLINATION": 98.4133, "RA_OF_ASC_NODE": 10.5469, "ARG_OF_PERICENTER": 93.2921, "MEAN_ANOMALY": 268.8248, "EPHEMERIS_TYPE": 0, "CLASSIFICATION_TYPE": "U", "NORAD_CAT_ID": 30514, "ELEMENT_SET_NO": 999, "REV_AT_EPOCH": 98229, "BSTAR": 0.00079328983, "MEAN_MOTION_DOT": 2.603e-05, "MEAN_MOTION_DDOT": 0}, "tle": {"line1": "1 30514U 99025AJC 25347.02412836  .00002603  00000+0  79329-3 0  9998", "line2": "2 30514  98.4133  10.5469 0174541  93.2921 268.8248 14.34357361982291"}}, "geometry": {"type": "Point", "coordinates": [8.815750337251286, 14.169973704707552]}}]}